{"type": "FeatureCollection", "features": [ {"type": "Feature", "properties": {"norad_id": 66567, "name": "STARLINK-35825", "group": "last-30-days", "lat": 42.9643398072472, "lon": -130.75217523671373, "alt_km": 410.1595255972752, "timestamp": "2025-12-09T07:41:31.972905+00:00", "meta": {"OBJECT_NAME": "STARLINK-35825", "OBJECT_ID": "2025-268L", "EPOCH": "2025-12-08T22:00:03.000096", "MEAN_MOTION": 15.51663026, "ECCENTRICITY": 0.00016323, "INCLINATION": 43.0005, "RA_OF_ASC_NODE": 143.5121, "ARG_OF_PERICENTER": 259.42, "MEAN_ANOMALY": 91.8134, "EPHEMERIS_TYPE": 0, "CLASSIFICATION_TYPE": "U", "NORAD_CAT_ID": 66567, "ELEMENT_SET_NO": 999, "REV_AT_EPOCH": 405, "BSTAR": -0.028054806, "MEAN_MOTION_DOT": -0.01545402, "MEAN_MOTION_DDOT": 0}, "tle": {"line1": "1 66567U 25268L   25342.91670139 -.01545402  00000+0 -28055-1 0  9998", "line2": "2 66567  43.0005 143.5121 0001632 259.4200  91.8134 15.51663026  4055"}}, "geometry": {"type": "Point", "coordinates": [-130.75217523671373, 42.9643398072472]}}, {"type": "Feature", "properties": {"norad_id": 66568, "name": "STARLINK-35803", "group": "last-30-days", "lat": 42.97748402161768, "lon": -128.13406642308686, "alt_km": 410.19059328611, "timestamp": "2025-12-09T07:41:31.972917+00:00", "meta": {"OBJECT_NAME": "STARLINK-35803", "OBJECT_ID": "2025-268M", "EPOCH": "2025-12-08T22:00:03.000096", "MEAN_MOTION": 15.51668672, "ECCENTRICITY": 0.00017035, "INCLINATION": 43.0002, "RA_OF_ASC_NODE": 143.5066, "ARG_OF_PERICENTER": 259.0817, "MEAN_ANOMALY": 94.0636, "EPHEMERIS_TYPE": 0, "CLASSIFICATION_TYPE": "U", "NORAD_CAT_ID": 66568, "ELEMENT_SET_NO": 999, "REV_AT_EPOCH": 405, "BSTAR": -0.02811223, "MEAN_MOTION_DOT": -0.01548581, "MEAN_MOTION_DDOT": 0}, "tle": {"line1": "1 66568U 25268M   25342.91670139 -.01548581  00000+0 -28112-1 0  9994", "line2": "2 66568  43.0002 143.5066 0001703 259.0817  94.0636 15.51668672  4054"}}, "geometry": {"type": "Point", "coordinates": [-128.13406642308686, 42.97748402161768]}}, {"type": "Feature", "properties": {"norad_id": 66569, "name": "STARLINK-35835", "group": "last-30-days", "lat": 42.93106807824929, "lon": -125.51803140306572, "alt_km": 410.186637442288, "timestamp": "2025-12-09T07:41:31.972929+00:00", "meta": {"OBJECT_NAME": "STARLINK-35835", "OBJECT_ID": "2025-268N", "EPOCH": "2025-12-08T22:00:03.000096", "MEAN_MOTION": 15.51671911, "ECCENTRICITY": 0.00017073, "INCLINATION": 43.0002, "RA_OF_ASC_NODE": 143.502, "ARG_OF_PERICENTER": 258.0148, "MEAN_ANOMALY": 97.0453, "EPHEMERIS_TYPE": 0, "CLASSIFICATION_TYPE": "U", "NORAD_CAT_ID": 66569, "ELEMENT_SET_NO": 999, "REV_AT_EPOCH": 405, "BSTAR": -0.028180235, "MEAN_MOTION_DOT": -0.01552134, "MEAN_MOTION_DDOT": 0}, "tle": {"line1": "1 66569U 25268N   25342.91670139 -.01552134  00000+0 -28180-1 0  9999", "line2": "2 66569  43.0002 143.5020 0001707 258.0148  97.0453 15.51671911  4055"}}, "geometry": {"type": "Point", "coordinates": [-125.51803140306572, 42.93106807824929]}}, {"type": "Feature", "properties": {"norad_id": 66570, "name": "STARLINK-35834", "group": "last-30-days", "lat": 42.82515845827382, "lon": -122.90460159357299, "alt_km": 410.1028884570178, "timestamp": "2025-12-09T07:41:31.972939+00:00", "meta": {"OBJECT_NAME": "STARLINK-35834", "OBJECT_ID": "2025-268P", "EPOCH": "2025-12-08T22:00:03.000096", "MEAN_MOTION": 15.51667201, "ECCENTRICITY": 0.00015031, "INCLINATION": 43.0006, "RA_OF_ASC_NODE": 143.4965, "ARG_OF_PERICENTER": 268.0881, "MEAN_ANOMALY": 88.8937, "EPHEMERIS_TYPE": 0, "CLASSIFICATION_TYPE": "U", "NORAD_CAT_ID": 66570, "ELEMENT_SET_NO": 999, "REV_AT_EPOCH": 405, "BSTAR": -0.028159817, "MEAN_MOTION_DOT": -0.01550789, "MEAN_MOTION_DDOT": 0}, "tle": {"line1": "1 66570U 25268P   25342.91670139 -.01550789  00000+0 -28160-1 0  9993", "line2": "2 66570  43.0006 143.4965 0001503 268.0881  88.8937 15.51667201  4059"}}, "geometry": {"type": "Point", "coordinates": [-122.90460159357299, 42.82515845827382]}}, {"type": "Feature", "properties": {"norad_id": 66571, "name": "STARLINK-35836", "group": "last-30-days", "lat": 42.65966069712971, "lon": -120.30709944375442, "alt_km": 410.20157250001375, "timestamp": "2025-12-09T07:41:31.972949+00:00", "meta": {"OBJECT_NAME": "STARLINK-35836", "OBJECT_ID": "2025-268Q", "EPOCH": "2025-12-08T22:00:03.000096", "MEAN_MOTION": 15.51667927, "ECCENTRICITY": 0.00016502, "INCLINATION": 43.0004, "RA_OF_ASC_NODE": 143.4926, "ARG_OF_PERICENTER": 269.4204, "MEAN_ANOMALY": 89.4693, "EPHEMERIS_TYPE": 0, "CLASSIFICATION_TYPE": "U", "NORAD_CAT_ID": 66571, "ELEMENT_SET_NO": 999, "REV_AT_EPOCH": 405, "BSTAR": -0.027979159, "MEAN_MOTION_DOT": -0.01541887, "MEAN_MOTION_DDOT": 0}, "tle": {"line1": "1 66571U 25268Q   25342.91670139 -.01541887  00000+0 -27979-1 0  9990", "line2": "2 66571  43.0004 143.4926 0001650 269.4204  89.4693 15.51667927  4053"}}, "geometry": {"type": "Point", "coordinates": [-120.30709944375442, 42.65966069712971]}}, {"type": "Feature", "properties": {"norad_id": 66572, "name": "STARLINK-35870", "group": "last-30-days", "lat": 42.43562890795791, "lon": -117.7228826757206, "alt_km": 410.2568648230181, "timestamp": "2025-12-09T07:41:31.972959+00:00", "meta": {"OBJECT_NAME": "STARLINK-35870", "OBJECT_ID": "2025-268R", "EPOCH": "2025-12-08T22:00:03.000096", "MEAN_MOTION": 15.51671614, "ECCENTRICITY": 0.00016623, "INCLINATION": 43.0005, "RA_OF_ASC_NODE": 143.4883, "ARG_OF_PERICENTER": 266.3354, "MEAN_ANOMALY": 94.4778, "EPHEMERIS_TYPE": 0, "CLASSIFICATION_TYPE": "U", "NORAD_CAT_ID": 66572, "ELEMENT_SET_NO": 999, "REV_AT_EPOCH": 405, "BSTAR": -0.028247505, "MEAN_MOTION_DOT": -0.01555448, "MEAN_MOTION_DDOT": 0}, "tle": {"line1": "1 66572U 25268R   25342.91670139 -.01555448  00000+0 -28248-1 0  9999", "line2": "2 66572  43.0005 143.4883 0001662 266.3354  94.4778 15.51671614  4050"}}, "geometry": {"type": "Point", "coordinates": [-117.7228826757206, 42.43562890795791]}}, {"type": "Feature", "properties": {"norad_id": 66573, "name": "STARLINK-35650", "group": "last-30-days", "lat": 42.15386952855669, "lon": -115.16146146126026, "alt_km": 410.30309310615576, "timestamp": "2025-12-09T07:41:31.972969+00:00", "meta": {"OBJECT_NAME": "STARLINK-35650", "OBJECT_ID": "2025-268S", "EPOCH": "2025-12-08T22:00:03.000096", "MEAN_MOTION": 15.51667011, "ECCENTRICITY": 0.00016531, "INCLINATION": 43.0006, "RA_OF_ASC_NODE": 143.4825, "ARG_OF_PERICENTER": 269.4871, "MEAN_ANOMALY": 93.2469, "EPHEMERIS_TYPE": 0, "CLASSIFICATION_TYPE": "U", "NORAD_CAT_ID": 66573, "ELEMENT_SET_NO": 999, "REV_AT_EPOCH": 405, "BSTAR": -0.028184772, "MEAN_MOTION_DOT": -0.01552087, "MEAN_MOTION_DDOT": 0}, "tle": {"line1": "1 66573U 25268S   25342.91670139 -.01552087  00000+0 -28185-1 0  9996", "line2": "2 66573  43.0006 143.4825 0001653 269.4871  93.2469 15.51667011  4056"}}, "geometry": {"type": "Point", "coordinates": [-115.16146146126026, 42.15386952855669]}}, {"type": "Feature", "properties": {"norad_id": 66574, "name": "STARLINK-35812", "group": "last-30-days", "lat": 41.81742881877458, "lon": -112.63808400003684, "alt_km": 410.174898732741, "timestamp": "2025-12-09T07:41:31.972979+00:00", "meta": {"OBJECT_NAME": "STARLINK-35812", "OBJECT_ID": "2025-268T", "EPOCH": "2025-12-08T22:00:03.000096", "MEAN_MOTION": 15.51563779, "ECCENTRICITY": 0.00019443, "INCLINATION": 43.0007, "RA_OF_ASC_NODE": 143.4776, "ARG_OF_PERICENTER": 264.9234, "MEAN_ANOMALY": 99.7111, "EPHEMERIS_TYPE": 0, "CLASSIFICATION_TYPE": "U", "NORAD_CAT_ID": 66574, "ELEMENT_SET_NO": 999, "REV_AT_EPOCH": 405, "BSTAR": -0.023676539, "MEAN_MOTION_DOT": -0.01300991, "MEAN_MOTION_DDOT": 0}, "tle": {"line1": "1 66574U 25268T   25342.91670139 -.01300991  00000+0 -23677-1 0  9993", "line2": "2 66574  43.0007 143.4776 0001944 264.9234  99.7111 15.51563779  4050"}}, "geometry": {"type": "Point", "coordinates": [-112.63808400003684, 41.81742881877458]}}, {"type": "Feature", "properties": {"norad_id": 66575, "name": "STARLINK-35810", "group": "last-30-days", "lat": 41.423573202391346, "lon": -110.1284686887767, "alt_km": 410.20422539110587, "timestamp": "2025-12-09T07:41:31.972991+00:00", "meta": {"OBJECT_NAME": "STARLINK-35810", "OBJECT_ID": "2025-268U", "EPOCH": "2025-12-08T22:00:03.000096", "MEAN_MOTION": 15.51568169, "ECCENTRICITY": 0.00018807, "INCLINATION": 43.0007, "RA_OF_ASC_NODE": 143.4727, "ARG_OF_PERICENTER": 267.512, "MEAN_ANOMALY": 99.0382, "EPHEMERIS_TYPE": 0, "CLASSIFICATION_TYPE": "U", "NORAD_CAT_ID": 66575, "ELEMENT_SET_NO": 999, "REV_AT_EPOCH": 405, "BSTAR": -0.023809935, "MEAN_MOTION_DOT": -0.0130779, "MEAN_MOTION_DDOT": 0}, "tle": {"line1": "1 66575U 25268U   25342.91670139 -.01307790  00000+0 -23810-1 0  9997", "line2": "2 66575  43.0007 143.4727 0001880 267.5120  99.0382 15.51568169  4050"}}, "geometry": {"type": "Point", "coordinates": [-110.1284686887767, 41.423573202391346]}}, {"type": "Feature", "properties": {"norad_id": 66576, "name": "STARLINK-35814", "group": "last-30-days", "lat": 40.97545429204679, "lon": -107.65093847315485, "alt_km": 410.374937122554, "timestamp": "2025-12-09T07:41:31.973001+00:00", "meta": {"OBJECT_NAME": "STARLINK-35814", "OBJECT_ID": "2025-268V", "EPOCH": "2025-12-08T22:00:03.000096", "MEAN_MOTION": 15.51657709, "ECCENTRICITY": 0.00017408, "INCLINATION": 43.0005, "RA_OF_ASC_NODE": 143.468, "ARG_OF_PERICENTER": 256.1642, "MEAN_ANOMALY": 112.3218, "EPHEMERIS_TYPE": 0, "CLASSIFICATION_TYPE": "U", "NORAD_CAT_ID": 66576, "ELEMENT_SET_NO": 999, "REV_AT_EPOCH": 405, "BSTAR": -0.027858927, "MEAN_MOTION_DOT": -0.01535415, "MEAN_MOTION_DDOT": 0}, "tle": {"line1": "1 66576U 25268V   25342.91670139 -.01535415  00000+0 -27859-1 0  9992", "line2": "2 66576  43.0005 143.4680 0001740 256.1642 112.3218 15.51657709  4051"}}, "geometry": {"type": "Point", "coordinates": [-107.65093847315485, 40.97545429204679]}}]}